{
    "links": {
        "self": "http://www.neowsapp.com/rest/v1/neo/3560913?api_key=iIulBulltgU6a56xZRHN4H3l9WmuAYTsLGpBGhQ2"
    },
    "id": "3560913",
    "neo_reference_id": "3560913",
    "name": "(2011 FF41)",
    "designation": "2011 FF41",
    "nasa_jpl_url": "http://ssd.jpl.nasa.gov/sbdb.cgi?sstr=3560913",
    "absolute_magnitude_h": 23.6,
    "estimated_diameter": {
        "kilometers": {
            "estimated_diameter_min": 0.0506471459,
            "estimated_diameter_max": 0.1132504611
        },
        "meters": {
            "estimated_diameter_min": 50.6471458835,
            "estimated_diameter_max": 113.2504610618
        },
        "miles": {
            "estimated_diameter_min": 0.0314706677,
            "estimated_diameter_max": 0.0703705522
        },
        "feet": {
            "estimated_diameter_min": 166.1651821003,
            "estimated_diameter_max": 371.5566426699
        }
    },
    "is_potentially_hazardous_asteroid": false,
    "close_approach_data": [
        {
            "close_approach_date": "2011-03-29",
            "close_approach_date_full": "2011-Mar-29 02:40",
            "epoch_date_close_approach": 1301366400000,
            "relative_velocity": {
                "kilometers_per_second": "11.7945217944",
                "kilometers_per_hour": "42460.278459826",
                "miles_per_hour": "26383.1658018846"
            },
            "miss_distance": {
                "astronomical": "0.2302611278",
                "lunar": "89.5715787142",
                "kilometers": "34446574.262677786",
                "miles": "21404108.7251180068"
            },
            "orbiting_body": "Earth"
        }
    ],
    "orbital_data": {
        "orbit_id": "5",
        "orbit_determination_date": "2017-04-06 08:53:56",
        "first_observation_date": "2011-03-31",
        "last_observation_date": "2011-04-02",
        "data_arc_in_days": 2,
        "observations_used": 10,
        "orbit_uncertainty": "9",
        "minimum_orbit_intersection": ".228701",
        "jupiter_tisserand_invariant": "5.094",
        "epoch_osculation": "2455652.5",
        "eccentricity": ".04718107918683559",
        "semi_major_axis": "1.239536297280168",
        "inclination": "23.15980806623799",
        "ascending_node_longitude": "4.640622539343224",
        "orbital_period": "504.06587850525",
        "perihelion_distance": "1.181053637083235",
        "perihelion_argument": "262.4137447683897",
        "aphelion_distance": "1.2980189574771",
        "perihelion_time": "2455754.314219536741",
        "mean_anomaly": "287.2850621392636",
        "mean_motion": ".7141923612594826",
        "equinox": "J2000",
        "orbit_class": {
            "orbit_class_type": "AMO",
            "orbit_class_description": "Near-Earth asteroid orbits similar to that of 1221 Amor",
            "orbit_class_range": "1.017 AU < q (perihelion) < 1.3 AU"
        }
    },
    "is_sentry_object": false
}